start=new Date('2021-10-16T00:00:00.000Z').valueOf();
sats=[{"RCS_SIZE":"LARGE","TLE_LINE2":"2 46756  53.0548 336.8825 0001503  87.3337 272.7824 15.06377999 54524","CLASSIFICATION_TYPE":"U","CENTER_NAME":"EARTH","MEAN_MOTION":"15.06377999","MEAN_ANOMALY":"272.7824","ECCENTRICITY":"0.00015030","OBJECT_ID":"2020-074T","APOAPSIS":"548.322","EPHEMERIS_TYPE":"0","NORAD_CAT_ID":"46756","PERIAPSIS":"546.240","ELEMENT_SET_NO":"999","BSTAR":"-0.00007973500000","EPOCH":"2021-10-15T13:02:01.724064","FILE":"3165217","SITE":"AFETR","GP_ID":"187279974","MEAN_MOTION_DOT":"-0.00001468","MEAN_ELEMENT_THEORY":"SGP4","REV_AT_EPOCH":"5452","PERIOD":"95.594","LAUNCH_DATE":"2020-10-24","OBJECT_TYPE":"PAYLOAD","SEMIMAJOR_AXIS":"6925.416","COUNTRY_CODE":"US","OBJECT_NAME":"STARLINK-1925","TLE_LINE1":"1 46756U 20074T   21288.54307551 -.00001468  00000-0 -79735-4 0  9998","DECAY_DATE":null,"REF_FRAME":"TEME","INCLINATION":"53.0548","MEAN_MOTION_DDOT":"0.0000000000000","RA_OF_ASC_NODE":"336.8825","ARG_OF_PERICENTER":"87.3337","TIME_SYSTEM":"UTC"},{"SITE":"AFETR","FILE":"3165217","EPOCH":"2021-10-15T12:08:58.745472","BSTAR":"-0.00022206000000","NORAD_CAT_ID":"46757","PERIAPSIS":"546.321","ELEMENT_SET_NO":"999","EPHEMERIS_TYPE":"0","APOAPSIS":"548.361","OBJECT_ID":"2020-074U","MEAN_ANOMALY":"276.2018","ECCENTRICITY":"0.00014730","MEAN_MOTION":"15.06358505","CENTER_NAME":"EARTH","TLE_LINE2":"2 46757  53.0558 337.0677 0001473  83.9139 276.2018 15.06358505 54517","CLASSIFICATION_TYPE":"U","RCS_SIZE":"LARGE","REV_AT_EPOCH":"5451","MEAN_ELEMENT_THEORY":"SGP4","MEAN_MOTION_DOT":"-0.00003584","GP_ID":"187280226","LAUNCH_DATE":"2020-10-24","PERIOD":"95.595","TIME_SYSTEM":"UTC","ARG_OF_PERICENTER":"83.9139","RA_OF_ASC_NODE":"337.0677","MEAN_MOTION_DDOT":"0.0000000000000","INCLINATION":"53.0558","REF_FRAME":"TEME","OBJECT_NAME":"STARLINK-1926","TLE_LINE1":"1 46757U 20074U   21288.50623548 -.00003584  00000-0 -22206-3 0  9993","DECAY_DATE":null,"COUNTRY_CODE":"US","SEMIMAJOR_AXIS":"6925.476","OBJECT_TYPE":"PAYLOAD"},{"LAUNCH_DATE":"2020-10-24","PERIOD":"95.594","TIME_SYSTEM":"UTC","ARG_OF_PERICENTER":"86.0164","RA_OF_ASC_NODE":"337.5403","INCLINATION":"53.0555","MEAN_MOTION_DDOT":"0.0000000000000","REF_FRAME":"TEME","TLE_LINE1":"1 46758U 20074V   21288.40026794 -.00001958  00000-0 -11265-3 0  9999","DECAY_DATE":null,"OBJECT_NAME":"STARLINK-1928","COUNTRY_CODE":"US","SEMIMAJOR_AXIS":"6925.424","OBJECT_TYPE":"PAYLOAD","SITE":"AFETR","FILE":"3164360","EPOCH":"2021-10-15T09:36:23.150016","BSTAR":"-0.00011265000000","PERIAPSIS":"546.404","ELEMENT_SET_NO":"999","NORAD_CAT_ID":"46758","EPHEMERIS_TYPE":"0","APOAPSIS":"548.174","OBJECT_ID":"2020-074V","ECCENTRICITY":"0.00012780","MEAN_ANOMALY":"274.0971","MEAN_MOTION":"15.06375402","CENTER_NAME":"EARTH","TLE_LINE2":"2 46758  53.0555 337.5403 0001278  86.0164 274.0971 15.06375402 54500","CLASSIFICATION_TYPE":"U","RCS_SIZE":"LARGE","REV_AT_EPOCH":"5450","MEAN_ELEMENT_THEORY":"SGP4","MEAN_MOTION_DOT":"-0.00001958","GP_ID":"187239278"},{"MEAN_MOTION":"15.06380521","CENTER_NAME":"EARTH","TLE_LINE2":"2 46759  53.0562 346.9462 0001243 105.0392 255.0735 15.06380521 54375","CLASSIFICATION_TYPE":"U","RCS_SIZE":"LARGE","OBJECT_ID":"2020-074W","ECCENTRICITY":"0.00012430","MEAN_ANOMALY":"255.0735","BSTAR":"-0.00008618000000","ELEMENT_SET_NO":"999","PERIAPSIS":"546.412","NORAD_CAT_ID":"46759","EPHEMERIS_TYPE":"0","APOAPSIS":"548.134","SITE":"AFETR","FILE":"3165217","EPOCH":"2021-10-15T12:40:49.079712","GP_ID":"187279724","MEAN_ELEMENT_THEORY":"SGP4","MEAN_MOTION_DOT":"-0.00001564","REV_AT_EPOCH":"5437","PERIOD":"95.593","LAUNCH_DATE":"2020-10-24","SEMIMAJOR_AXIS":"6925.408","OBJECT_TYPE":"PAYLOAD","REF_FRAME":"TEME","TLE_LINE1":"1 46759U 20074W   21288.52834583 -.00001564  00000-0 -86180-4 0  9998","DECAY_DATE":null,"OBJECT_NAME":"STARLINK-1833","COUNTRY_CODE":"US","MEAN_MOTION_DDOT":"0.0000000000000","INCLINATION":"53.0562","TIME_SYSTEM":"UTC","ARG_OF_PERICENTER":"105.0392","RA_OF_ASC_NODE":"346.9462"},{"CENTER_NAME":"EARTH","MEAN_MOTION":"15.06390201","RCS_SIZE":"LARGE","CLASSIFICATION_TYPE":"U","TLE_LINE2":"2 46760  53.0539 346.6205 0001228 103.7387 256.3739 15.06390201 54391","OBJECT_ID":"2020-074X","MEAN_ANOMALY":"256.3739","ECCENTRICITY":"0.00012280","PERIAPSIS":"546.393","ELEMENT_SET_NO":"999","NORAD_CAT_ID":"46760","BSTAR":"-0.00006313000000","APOAPSIS":"548.094","EPHEMERIS_TYPE":"0","FILE":"3165217","SITE":"AFETR","EPOCH":"2021-10-15T14:32:16.400832","GP_ID":"187279475","MEAN_ELEMENT_THEORY":"SGP4","MEAN_MOTION_DOT":"-0.00001221","REV_AT_EPOCH":"5439","PERIOD":"95.593","LAUNCH_DATE":"2020-10-24","SEMIMAJOR_AXIS":"6925.379","OBJECT_TYPE":"PAYLOAD","DECAY_DATE":null,"TLE_LINE1":"1 46760U 20074X   21288.60574538 -.00001221  00000-0 -63130-4 0  9990","OBJECT_NAME":"STARLINK-1896","REF_FRAME":"TEME","COUNTRY_CODE":"US","MEAN_MOTION_DDOT":"0.0000000000000","INCLINATION":"53.0539","ARG_OF_PERICENTER":"103.7387","TIME_SYSTEM":"UTC","RA_OF_ASC_NODE":"346.6205"},{"PERIOD":"91.700","LAUNCH_DATE":"2020-10-24","COUNTRY_CODE":"US","TLE_LINE1":"1 46762U 20074Z   21288.71737103  .00608351  00000-0  45481-2 0  9995","OBJECT_NAME":"STARLINK-1901","DECAY_DATE":null,"REF_FRAME":"TEME","OBJECT_TYPE":"PAYLOAD","SEMIMAJOR_AXIS":"6736.083","RA_OF_ASC_NODE":"325.8458","ARG_OF_PERICENTER":"304.4691","TIME_SYSTEM":"UTC","INCLINATION":"53.0534","MEAN_MOTION_DDOT":"0.0000000000000","ECCENTRICITY":"0.00011630","MEAN_ANOMALY":"55.6215","OBJECT_ID":"2020-074Z","RCS_SIZE":"LARGE","TLE_LINE2":"2 46762  53.0534 325.8458 0001163 304.4691  55.6215 15.70332561 54691","CLASSIFICATION_TYPE":"U","CENTER_NAME":"EARTH","MEAN_MOTION":"15.70332561","EPOCH":"2021-10-15T17:13:00.856992","FILE":"3165217","SITE":"AFETR","APOAPSIS":"358.731","EPHEMERIS_TYPE":"0","PERIAPSIS":"357.164","NORAD_CAT_ID":"46762","ELEMENT_SET_NO":"999","BSTAR":"0.00454810000000","GP_ID":"187280726","REV_AT_EPOCH":"5469","MEAN_MOTION_DOT":"0.00608351","MEAN_ELEMENT_THEORY":"SGP4"},{"REV_AT_EPOCH":"5438","MEAN_ELEMENT_THEORY":"SGP4","MEAN_MOTION_DOT":"-0.00001409","GP_ID":"187280477","FILE":"3165217","SITE":"AFETR","EPOCH":"2021-10-15T13:12:40.501728","NORAD_CAT_ID":"46763","PERIAPSIS":"546.486","ELEMENT_SET_NO":"999","BSTAR":"-0.00007578600000","APOAPSIS":"548.081","EPHEMERIS_TYPE":"0","OBJECT_ID":"2020-074AA","ECCENTRICITY":"0.00011520","MEAN_ANOMALY":"263.4842","CENTER_NAME":"EARTH","MEAN_MOTION":"15.06377155","RCS_SIZE":"LARGE","TLE_LINE2":"2 46763  53.0563 346.8497 0001152  96.6279 263.4842 15.06377155 54388","CLASSIFICATION_TYPE":"U","ARG_OF_PERICENTER":"96.6279","TIME_SYSTEM":"UTC","RA_OF_ASC_NODE":"346.8497","MEAN_MOTION_DDOT":"0.0000000000000","INCLINATION":"53.0563","DECAY_DATE":null,"TLE_LINE1":"1 46763U 20074AA  21288.55046877 -.00001409  00000-0 -75786-4 0  9995","OBJECT_NAME":"STARLINK-1902","REF_FRAME":"TEME","COUNTRY_CODE":"US","SEMIMAJOR_AXIS":"6925.419","OBJECT_TYPE":"PAYLOAD","LAUNCH_DATE":"2020-10-24","PERIOD":"95.594"},{"PERIOD":"95.593","LAUNCH_DATE":"2020-10-24","SEMIMAJOR_AXIS":"6925.371","OBJECT_TYPE":"PAYLOAD","REF_FRAME":"TEME","TLE_LINE1":"1 46764U 20074AB  21288.53202457  .00000333  00000-0  41234-4 0  9996","OBJECT_NAME":"STARLINK-1903","DECAY_DATE":null,"COUNTRY_CODE":"US","MEAN_MOTION_DDOT":"0.0000000000000","INCLINATION":"53.0545","TIME_SYSTEM":"UTC","ARG_OF_PERICENTER":"95.9455","RA_OF_ASC_NODE":"346.9406","MEAN_MOTION":"15.06392568","CENTER_NAME":"EARTH","TLE_LINE2":"2 46764  53.0545 346.9406 0001411  95.9455 264.1694 15.06392568 54384","CLASSIFICATION_TYPE":"U","RCS_SIZE":"LARGE","OBJECT_ID":"2020-074AB","ECCENTRICITY":"0.00014110","MEAN_ANOMALY":"264.1694","BSTAR":"0.00004123400000","NORAD_CAT_ID":"46764","PERIAPSIS":"546.259","ELEMENT_SET_NO":"999","EPHEMERIS_TYPE":"0","APOAPSIS":"548.214","SITE":"AFETR","FILE":"3165217","EPOCH":"2021-10-15T12:46:06.922848","GP_ID":"187279225","MEAN_ELEMENT_THEORY":"SGP4","MEAN_MOTION_DOT":"0.00000333","REV_AT_EPOCH":"5438"},{"OBJECT_ID":"2020-074AC","MEAN_ANOMALY":"265.2552","ECCENTRICITY":"0.00013590","CENTER_NAME":"EARTH","MEAN_MOTION":"15.06377311","RCS_SIZE":"LARGE","TLE_LINE2":"2 46765  53.0581 346.6898 0001359  94.8592 265.2552 15.06377311 54382","CLASSIFICATION_TYPE":"U","FILE":"3165217","SITE":"AFETR","EPOCH":"2021-10-15T14:05:45.181536","ELEMENT_SET_NO":"999","PERIAPSIS":"546.342","NORAD_CAT_ID":"46765","BSTAR":"-0.00009499300000","APOAPSIS":"548.224","EPHEMERIS_TYPE":"0","GP_ID":"187279975","REV_AT_EPOCH":"5438","MEAN_ELEMENT_THEORY":"SGP4","MEAN_MOTION_DOT":"-0.00001695","PERIOD":"95.594","LAUNCH_DATE":"2020-10-24","TLE_LINE1":"1 46765U 20074AC  21288.58732849 -.00001695  00000-0 -94993-4 0  9999","DECAY_DATE":null,"OBJECT_NAME":"STARLINK-1906","REF_FRAME":"TEME","COUNTRY_CODE":"US","SEMIMAJOR_AXIS":"6925.418","OBJECT_TYPE":"PAYLOAD","ARG_OF_PERICENTER":"94.8592","TIME_SYSTEM":"UTC","RA_OF_ASC_NODE":"346.6898","INCLINATION":"53.0581","MEAN_MOTION_DDOT":"0.0000000000000"},{"PERIOD":"95.593","LAUNCH_DATE":"2020-10-24","SEMIMAJOR_AXIS":"6925.378","OBJECT_TYPE":"PAYLOAD","TLE_LINE1":"1 46766U 20074AD  21288.51359470 -.00001666  00000-0 -93010-4 0  9995","DECAY_DATE":null,"OBJECT_NAME":"STARLINK-1916","REF_FRAME":"TEME","COUNTRY_CODE":"US","INCLINATION":"53.0544","MEAN_MOTION_DDOT":"0.0000000000000","ARG_OF_PERICENTER":"90.8003","TIME_SYSTEM":"UTC","RA_OF_ASC_NODE":"347.0375","CENTER_NAME":"EARTH","MEAN_MOTION":"15.06390235","RCS_SIZE":"LARGE","CLASSIFICATION_TYPE":"U","TLE_LINE2":"2 46766  53.0544 347.0375 0001200  90.8003 269.3123 15.06390235 54384","OBJECT_ID":"2020-074AD","MEAN_ANOMALY":"269.3123","ECCENTRICITY":"0.00012000","ELEMENT_SET_NO":"999","PERIAPSIS":"546.412","NORAD_CAT_ID":"46766","BSTAR":"-0.00009301000000","APOAPSIS":"548.075","EPHEMERIS_TYPE":"0","FILE":"3165217","SITE":"AFETR","EPOCH":"2021-10-15T12:19:34.582080","GP_ID":"187280227","MEAN_ELEMENT_THEORY":"SGP4","MEAN_MOTION_DOT":"-0.00001666","REV_AT_EPOCH":"5438"}];
